[{"OBJECT_NAME":"UFO 10 (USA 146)","OBJECT_ID":"1999-063A","EPOCH":"2026-03-02T17:25:44.939712","MEAN_MOTION":1.00274051,"ECCENTRICITY":0.00053155,"INCLINATION":9.8459,"RA_OF_ASC_NODE":27.7994,"ARG_OF_PERICENTER":294.1021,"MEAN_ANOMALY":77.1937,"EPHEMERIS_TYPE":0,"CLASSIFICATION_TYPE":"U","NORAD_CAT_ID":25967,"ELEMENT_SET_NO":999,"REV_AT_EPOCH":9628,"BSTAR":0,"MEAN_MOTION_DOT":-1.99e-6,"MEAN_MOTION_DDOT":0},{"OBJECT_NAME":"ASIASTAR","OBJECT_ID":"2000-016A","EPOCH":"2026-03-02T23:10:18.324768","MEAN_MOTION":1.00272061,"ECCENTRICITY":0.0004529,"INCLINATION":8.8836,"RA_OF_ASC_NODE":59.2783,"ARG_OF_PERICENTER":289.3593,"MEAN_ANOMALY":264.6872,"EPHEMERIS_TYPE":0,"CLASSIFICATION_TYPE":"U","NORAD_CAT_ID":26107,"ELEMENT_SET_NO":999,"REV_AT_EPOCH":9485,"BSTAR":0,"MEAN_MOTION_DOT":-3.45e-6,"MEAN_MOTION_DDOT":0},{"OBJECT_NAME":"USA 149 (DSP 20)","OBJECT_ID":"2000-024A","EPOCH":"2026-03-03T01:18:28.538208","MEAN_MOTION":1.00275437,"ECCENTRICITY":0.0002179,"INCLINATION":13.0908,"RA_OF_ASC_NODE":12.5975,"ARG_OF_PERICENTER":1.967,"MEAN_ANOMALY":0.4931,"EPHEMERIS_TYPE":0,"CLASSIFICATION_TYPE":"U","NORAD_CAT_ID":26356,"ELEMENT_SET_NO":999,"REV_AT_EPOCH":3185,"BSTAR":0,"MEAN_MOTION_DOT":8.5e-7,"MEAN_MOTION_DDOT":0},{"OBJECT_NAME":"TDRS 8","OBJECT_ID":"2000-034A","EPOCH":"2026-03-02T21:21:55.413216","MEAN_MOTION":1.0027679,"ECCENTRICITY":0.0006157,"INCLINATION":12.5164,"RA_OF_ASC_NODE":32.2081,"ARG_OF_PERICENTER":307.0903,"MEAN_ANOMALY":226.5804,"EPHEMERIS_TYPE":0,"CLASSIFICATION_TYPE":"U","NORAD_CAT_ID":26388,"ELEMENT_SET_NO":999,"REV_AT_EPOCH":9411,"BSTAR":0,"MEAN_MOTION_DOT":-2.06e-6,"MEAN_MOTION_DDOT":0},{"OBJECT_NAME":"NSS-11","OBJECT_ID":"2000-059A","EPOCH":"2026-03-03T02:55:31.592352","MEAN_MOTION":1.00271535,"ECCENTRICITY":0.0003163,"INCLINATION":1.8527,"RA_OF_ASC_NODE":82.6883,"ARG_OF_PERICENTER":262.4144,"MEAN_ANOMALY":35.6562,"EPHEMERIS_TYPE":0,"CLASSIFICATION_TYPE":"U","NORAD_CAT_ID":26554,"ELEMENT_SET_NO":999,"REV_AT_EPOCH":4022,"BSTAR":0,"MEAN_MOTION_DOT":1.0e-7,"MEAN_MOTION_DDOT":0},{"OBJECT_NAME":"USA 153","OBJECT_ID":"2000-065A","EPOCH":"2026-03-02T20:00:38.439072","MEAN_MOTION":1.00270033,"ECCENTRICITY":0.0002511,"INCLINATION":11.4425,"RA_OF_ASC_NODE":36.2848,"ARG_OF_PERICENTER":343.3755,"MEAN_ANOMALY":215.514,"EPHEMERIS_TYPE":0,"CLASSIFICATION_TYPE":"U","NORAD_CAT_ID":26575,"ELEMENT_SET_NO":999,"REV_AT_EPOCH":3186,"BSTAR":0,"MEAN_MOTION_DOT":-3.36e-6,"MEAN_MOTION_DDOT":0},{"OBJECT_NAME":"AMC-6","OBJECT_ID":"2000-067A","EPOCH":"2026-03-03T03:41:38.902272","MEAN_MOTION":1.00271314,"ECCENTRICITY":0.0003149,"INCLINATION":0.051,"RA_OF_ASC_NODE":312.39,"ARG_OF_PERICENTER":26.0566,"MEAN_ANOMALY":102.8133,"EPHEMERIS_TYPE":0,"CLASSIFICATION_TYPE":"U","NORAD_CAT_ID":26580,"ELEMENT_SET_NO":999,"REV_AT_EPOCH":9282,"BSTAR":0,"MEAN_MOTION_DOT":7.3e-7,"MEAN_MOTION_DDOT":0},{"OBJECT_NAME":"USA 157 (MILSTAR-2 2)","OBJECT_ID":"2001-009A","EPOCH":"2026-03-03T01:22:50.618784","MEAN_MOTION":1.00278973,"ECCENTRICITY":0.0038177,"INCLINATION":11.4263,"RA_OF_ASC_NODE":20.4105,"ARG_OF_PERICENTER":183.5184,"MEAN_ANOMALY":187.642,"EPHEMERIS_TYPE":0,"CLASSIFICATION_TYPE":"U","NORAD_CAT_ID":26715,"ELEMENT_SET_NO":999,"REV_AT_EPOCH":3188,"BSTAR":0,"MEAN_MOTION_DOT":9.9e-7,"MEAN_MOTION_DDOT":0},{"OBJECT_NAME":"INTELSAT 10 (IS-10)","OBJECT_ID":"2001-019A","EPOCH":"2026-03-02T19:52:38.716032","MEAN_MOTION":0.99042112,"ECCENTRICITY":0.00060234,"INCLINATION":8.8221,"RA_OF_ASC_NODE":60.3368,"ARG_OF_PERICENTER":264.4557,"MEAN_ANOMALY":284.1492,"EPHEMERIS_TYPE":0,"CLASSIFICATION_TYPE":"U","NORAD_CAT_ID":26766,"ELEMENT_SET_NO":999,"REV_AT_EPOCH":4452,"BSTAR":0,"MEAN_MOTION_DOT":-2.97e-6,"MEAN_MOTION_DDOT":0},{"OBJECT_NAME":"USA 159 (DSP 21)","OBJECT_ID":"2001-033A","EPOCH":"2026-03-02T11:01:58.759968","MEAN_MOTION":1.00279769,"ECCENTRICITY":0.00022814,"INCLINATION":12.6874,"RA_OF_ASC_NODE":17.1829,"ARG_OF_PERICENTER":242.9429,"MEAN_ANOMALY":16.5978,"EPHEMERIS_TYPE":0,"CLASSIFICATION_TYPE":"U","NORAD_CAT_ID":26880,"ELEMENT_SET_NO":999,"REV_AT_EPOCH":3189,"BSTAR":0,"MEAN_MOTION_DOT":-3.08e-6,"MEAN_MOTION_DDOT":0},{"OBJECT_NAME":"INTELSAT 902 (IS-902)","OBJECT_ID":"2001-039A","EPOCH":"2026-03-03T00:55:38.254944","MEAN_MOTION":1.00270738,"ECCENTRICITY":0.0004598,"INCLINATION":5.8488,"RA_OF_ASC_NODE":73.0785,"ARG_OF_PERICENTER":274.7996,"MEAN_ANOMALY":136.7372,"EPHEMERIS_TYPE":0,"CLASSIFICATION_TYPE":"U","NORAD_CAT_ID":26900,"ELEMENT_SET_NO":999,"REV_AT_EPOCH":8963,"BSTAR":0,"MEAN_MOTION_DOT":-2.96e-6,"MEAN_MOTION_DDOT":0},{"OBJECT_NAME":"USA 164 (MILSTAR-2 3)","OBJECT_ID":"2002-001A","EPOCH":"2026-03-03T01:15:14.681664","MEAN_MOTION":1.00268825,"ECCENTRICITY":0.0099354,"INCLINATION":11.0537,"RA_OF_ASC_NODE":22.5393,"ARG_OF_PERICENTER":4.6198,"MEAN_ANOMALY":171.4193,"EPHEMERIS_TYPE":0,"CLASSIFICATION_TYPE":"U","NORAD_CAT_ID":27168,"ELEMENT_SET_NO":999,"REV_AT_EPOCH":3189,"BSTAR":0,"MEAN_MOTION_DOT":8.7e-7,"MEAN_MOTION_DDOT":0},{"OBJECT_NAME":"INTELSAT 904 (IS-904)","OBJECT_ID":"2002-007A","EPOCH":"2026-03-02T11:02:38.783040","MEAN_MOTION":1.00270508,"ECCENTRICITY":0.0006068,"INCLINATION":6.6541,"RA_OF_ASC_NODE":70.4635,"ARG_OF_PERICENTER":306.2018,"MEAN_ANOMALY":277.721,"EPHEMERIS_TYPE":0,"CLASSIFICATION_TYPE":"U","NORAD_CAT_ID":27380,"ELEMENT_SET_NO":999,"REV_AT_EPOCH":5069,"BSTAR":0,"MEAN_MOTION_DOT":-2.4e-6,"MEAN_MOTION_DDOT":0},{"OBJECT_NAME":"DIRECTV 5 (TEMPO 1)","OBJECT_ID":"2002-023A","EPOCH":"2026-03-03T03:16:59.532960","MEAN_MOTION":1.00272043,"ECCENTRICITY":0.0003594,"INCLINATION":4.6072,"RA_OF_ASC_NODE":76.6364,"ARG_OF_PERICENTER":271.5285,"MEAN_ANOMALY":111.878,"EPHEMERIS_TYPE":0,"CLASSIFICATION_TYPE":"U","NORAD_CAT_ID":27426,"ELEMENT_SET_NO":999,"REV_AT_EPOCH":8706,"BSTAR":0,"MEAN_MOTION_DOT":-7.1e-7,"MEAN_MOTION_DDOT":0},{"OBJECT_NAME":"INTELSAT 905 (IS-905)","OBJECT_ID":"2002-027A","EPOCH":"2026-03-03T03:09:00.298944","MEAN_MOTION":1.00272909,"ECCENTRICITY":0.0003158,"INCLINATION":6.4875,"RA_OF_ASC_NODE":71.0761,"ARG_OF_PERICENTER":273.9975,"MEAN_ANOMALY":85.8722,"EPHEMERIS_TYPE":0,"CLASSIFICATION_TYPE":"U","NORAD_CAT_ID":27438,"ELEMENT_SET_NO":999,"REV_AT_EPOCH":5029,"BSTAR":0,"MEAN_MOTION_DOT":8.1e-7,"MEAN_MOTION_DDOT":0},{"OBJECT_NAME":"GALAXY 3C (G-3C)","OBJECT_ID":"2002-030A","EPOCH":"2026-03-03T03:02:08.981376","MEAN_MOTION":1.00271556,"ECCENTRICITY":9.11e-5,"INCLINATION":3.4613,"RA_OF_ASC_NODE":79.4778,"ARG_OF_PERICENTER":31.0944,"MEAN_ANOMALY":1.0163,"EPHEMERIS_TYPE":0,"CLASSIFICATION_TYPE":"U","NORAD_CAT_ID":27445,"ELEMENT_SET_NO":999,"REV_AT_EPOCH":4543,"BSTAR":0,"MEAN_MOTION_DOT":-1.67e-6,"MEAN_MOTION_DDOT":0},{"OBJECT_NAME":"INTELSAT 906 (IS-906)","OBJECT_ID":"2002-041A","EPOCH":"2026-03-03T02:23:38.698944","MEAN_MOTION":1.00272667,"ECCENTRICITY":0.0003256,"INCLINATION":5.5328,"RA_OF_ASC_NODE":74.2286,"ARG_OF_PERICENTER":255.749,"MEAN_ANOMALY":290.9506,"EPHEMERIS_TYPE":0,"CLASSIFICATION_TYPE":"U","NORAD_CAT_ID":27513,"ELEMENT_SET_NO":999,"REV_AT_EPOCH":8596,"BSTAR":0,"MEAN_MOTION_DOT":0,"MEAN_MOTION_DDOT":0}]
